<?xml version="1.0" encoding="UTF-8"?>
<kml xmlns="http://www.opengis.net/kml/2.2"><Document><name>2026 呼伦贝尔—漠河自驾 9/15–9/22（道路图对齐 GCJ-02）</name><Style id="road"><LineStyle><color>ff37401f</color><width>5</width></LineStyle></Style><Style id="hard"><LineStyle><color>ff2a3bd2</color><width>5</width></LineStyle></Style><Style id="stay"><IconStyle><color>ff0b86b8</color><scale>1.2</scale></IconStyle></Style><Style id="spot"><IconStyle><color>ff2e7d32</color><scale>0.9</scale></IconStyle></Style><Folder><name>路线（按天）</name><Placemark><name>D2 9/16 海拉尔 → 莫尔格勒河 → 黑山头</name><description>宿 野马无缰天边民宿。道路测算约 182 km</description><styleUrl>#road</styleUrl><LineString><tessellate>1</tessellate><coordinates>119.824391,49.233525,0 119.829836,49.233525,0 119.829851,49.229833,0 119.792148,49.229813,0 119.785647,49.228525,0 119.779065,49.228232,0 119.777452,49.230271,0 119.774508,49.245696,0 119.774817,49.246964,0 119.766746,49.246204,0 119.752688,49.246752,0 119.737202,49.250863,0 119.736378,49.275889,0 119.738774,49.281302,0 119.738827,49.283623,0 119.731854,49.292934,0 119.730299,49.296044,0 119.724552,49.341821,0 119.703208,49.393734,0 119.696956,49.425580,0 119.696640,49.430545,0 119.697291,49.445015,0 119.695795,49.451041,0 119.699410,49.452760,0 119.705339,49.459019,0 119.708412,49.457475,0 119.711674,49.460249,0 119.710336,49.460933,0 119.711163,49.461649,0 119.710245,49.462111,0 119.710643,49.462467,0 119.709947,49.462815,0 119.703672,49.457577,0 119.699410,49.452760,0 119.695795,49.451041,0 119.679513,49.491383,0 119.678901,49.494203,0 119.679402,49.496532,0 119.686947,49.506046,0 119.689434,49.510334,0 119.703122,49.540854,0 119.718392,49.584457,0 119.721783,49.590360,0 119.769515,49.644275,0 119.783128,49.655302,0 119.828891,49.695985,0 119.844063,49.712207,0 119.855043,49.725433,0 119.877306,49.756209,0 119.915164,49.786770,0 119.917037,49.789059,0 119.922133,49.798691,0 119.923929,49.800066,0 119.929563,49.802540,0 119.932927,49.804753,0 119.957814,49.827949,0 119.959380,49.830043,0 119.962732,49.839000,0 119.963922,49.841051,0 119.965825,49.843021,0 119.971530,49.846447,0 119.973770,49.848422,0 119.984508,49.864274,0 119.985788,49.866922,0 119.988268,49.875117,0 119.990934,49.879067,0 119.993914,49.881666,0 120.011302,49.892886,0 120.023457,49.899359,0 120.028530,49.903585,0 120.038868,49.909557,0 120.044385,49.916289,0 120.047270,49.922812,0 120.048875,49.925123,0 120.067998,49.938929,0 120.081175,49.954807,0 120.090777,49.968597,0 120.095217,49.979509,0 120.096259,49.980927,0 120.109275,49.991929,0 120.132188,50.018048,0 120.168996,50.054717,0 120.183100,50.066719,0 120.188375,50.073093,0 120.194059,50.078575,0 120.195301,50.080461,0 120.203405,50.098692,0 120.216948,50.139383,0 120.216949,50.142524,0 120.215293,50.147252,0 120.213962,50.149602,0 120.195802,50.168757,0 120.177720,50.205862,0 120.177129,50.208505,0 120.177484,50.211131,0 120.182285,50.222906,0 120.166189,50.223331,0 120.153528,50.238515,0 120.151774,50.239435,0 120.150368,50.239402,0 120.114397,50.226635,0 120.088400,50.215540,0 120.012201,50.190098,0 120.005111,50.188773,0 119.973812,50.186845,0 119.960006,50.184239,0 119.957735,50.182755,0 119.953315,50.174374,0 119.947307,50.170013,0 119.896514,50.159237,0 119.881638,50.161757,0 119.856800,50.162200,0 119.813588,50.173419,0 119.770602,50.174728,0 119.736038,50.187954,0 119.734100,50.189351,0 119.723605,50.200304,0 119.721849,50.201400,0 119.708686,50.203905,0 119.689748,50.208831,0 119.680521,50.209103,0 119.668206,50.207403,0 119.659941,50.209915,0 119.635032,50.211936,0 119.603939,50.217842,0 119.600784,50.217842,0 119.578434,50.215343,0</coordinates></LineString></Placemark><Placemark><name>D3 9/17 黑山头 → X904 边防公路 → 室韦</name><description>经五卡、七卡、九卡；宿 巴扬宾馆。道路测算约 166 km</description><styleUrl>#road</styleUrl><LineString><tessellate>1</tessellate><coordinates>119.578434,50.215343,0 119.566792,50.213935,0 119.559240,50.211869,0 119.556389,50.210048,0 119.555183,50.212278,0 119.553879,50.229075,0 119.552078,50.235994,0 119.550815,50.237037,0 119.545158,50.239486,0 119.544241,50.240615,0 119.544851,50.245376,0 119.547769,50.251775,0 119.547640,50.252984,0 119.544047,50.258730,0 119.539569,50.263768,0 119.515106,50.284036,0 119.503312,50.301522,0 119.502088,50.301855,0 119.488249,50.301486,0 119.457994,50.309556,0 119.450022,50.312540,0 119.444831,50.315795,0 119.440831,50.319799,0 119.435215,50.323202,0 119.395221,50.367142,0 119.381267,50.371937,0 119.354384,50.379263,0 119.338373,50.388539,0 119.332096,50.390636,0 119.322310,50.391737,0 119.310792,50.396804,0 119.309930,50.397772,0 119.309369,50.399611,0 119.310182,50.403071,0 119.311706,50.406602,0 119.313061,50.412492,0 119.310205,50.420873,0 119.308392,50.423719,0 119.299342,50.425615,0 119.285828,50.425828,0 119.272395,50.430915,0 119.265433,50.436554,0 119.260641,50.439158,0 119.259542,50.441677,0 119.260003,50.444866,0 119.263384,50.449615,0 119.267487,50.457593,0 119.270493,50.477958,0 119.270173,50.478677,0 119.268152,50.479966,0 119.266123,50.486263,0 119.264533,50.489292,0 119.262443,50.491441,0 119.261264,50.498808,0 119.257475,50.504176,0 119.260126,50.507016,0 119.265978,50.510816,0 119.266800,50.518524,0 119.269713,50.522814,0 119.269843,50.526454,0 119.271425,50.531493,0 119.277572,50.538815,0 119.281137,50.541448,0 119.288782,50.561901,0 119.293181,50.568515,0 119.296428,50.572248,0 119.298914,50.577071,0 119.310703,50.590007,0 119.317111,50.595587,0 119.318665,50.596510,0 119.324400,50.597540,0 119.336576,50.606812,0 119.350635,50.614447,0 119.351087,50.615158,0 119.350777,50.618827,0 119.352652,50.621840,0 119.367930,50.629855,0 119.371969,50.631331,0 119.375625,50.631986,0 119.376988,50.634787,0 119.389567,50.642680,0 119.389788,50.643820,0 119.386476,50.651086,0 119.386726,50.652337,0 119.404821,50.667017,0 119.421813,50.672855,0 119.427495,50.673261,0 119.437157,50.675162,0 119.444917,50.675721,0 119.452266,50.685709,0 119.455476,50.687633,0 119.459651,50.687594,0 119.469062,50.685034,0 119.473622,50.684512,0 119.485934,50.684340,0 119.492650,50.686000,0 119.496908,50.686458,0 119.497755,50.690185,0 119.501546,50.696134,0 119.501417,50.697574,0 119.500194,50.700428,0 119.500672,50.703736,0 119.505119,50.705193,0 119.510045,50.711678,0 119.514571,50.715084,0 119.533507,50.731530,0 119.534124,50.733318,0 119.533479,50.737660,0 119.541534,50.743680,0 119.541422,50.744569,0 119.538684,50.745471,0 119.533927,50.748376,0 119.523059,50.751506,0 119.518457,50.754264,0 119.532220,50.765341,0 119.536098,50.773537,0 119.530334,50.788513,0 119.527780,50.799515,0 119.515022,50.827436,0 119.514553,50.831890,0 119.523744,50.847661,0 119.534030,50.857262,0 119.547866,50.871261,0 119.546837,50.874449,0 119.531313,50.892882,0 119.530164,50.894357,0 119.530252,50.895049,0 119.541064,50.899557,0 119.547129,50.905895,0 119.585518,50.938388,0 119.593538,50.941391,0 119.599872,50.945271,0 119.604664,50.952128,0 119.605845,50.960521,0 119.616601,50.968945,0 119.623228,50.971935,0 119.622080,50.973064,0 119.622456,50.973494,0 119.623562,50.973846,0 119.622602,50.972571,0 119.623228,50.971935,0 119.624504,50.971733,0 119.639614,50.962186,0 119.641019,50.961945,0 119.642355,50.962818,0 119.644346,50.967109,0 119.659391,50.972482,0 119.660503,50.974402,0 119.670977,50.981382,0 119.676970,50.983106,0 119.682722,50.990077,0 119.686353,50.991453,0 119.689925,50.994540,0 119.692166,50.998613,0 119.695618,51.008581,0 119.706875,51.012060,0 119.711655,51.018567,0 119.718491,51.023404,0 119.722362,51.029261,0 119.723874,51.030516,0 119.730290,51.030377,0 119.731430,51.030753,0 119.732534,51.032968,0 119.732217,51.037023,0 119.734817,51.040749,0 119.739289,51.044779,0 119.741706,51.047895,0 119.742794,51.052454,0 119.746962,51.055760,0 119.746540,51.060507,0 119.749378,51.063393,0 119.749500,51.066241,0 119.752283,51.069202,0 119.758936,51.078571,0 119.759632,51.080339,0 119.759479,51.083006,0 119.769125,51.091504,0 119.771259,51.103560,0 119.767231,51.108362,0 119.768598,51.115184,0 119.769111,51.115800,0 119.777959,51.119853,0 119.790966,51.160469,0 119.797774,51.175217,0 119.797293,51.176004,0 119.786468,51.179586,0 119.786317,51.181413,0 119.789180,51.188398,0 119.790958,51.191178,0 119.793699,51.192519,0 119.795294,51.195603,0 119.817968,51.211278,0 119.822841,51.214167,0 119.825054,51.216563,0 119.826871,51.220525,0 119.826306,51.224491,0 119.822910,51.231608,0 119.822867,51.233220,0 119.823476,51.234180,0 119.847780,51.260601,0 119.858500,51.268411,0 119.860296,51.271960,0 119.857849,51.274568,0 119.857935,51.275977,0 119.866744,51.280582,0 119.870209,51.284510,0 119.880177,51.289316,0 119.888248,51.302520,0 119.892047,51.304523,0 119.890528,51.307295,0 119.891267,51.310295,0 119.896874,51.318069,0 119.894534,51.320623,0 119.895395,51.329131,0 119.899082,51.334557,0 119.906897,51.336537,0 119.905485,51.339645,0 119.907633,51.340062,0</coordinates></LineString></Placemark><Placemark><name>D4 9/18 室韦 → 恩和 → 白桦林 → 额尔古纳 → 根河</name><description>宿 林城伴山酒店。道路测算约 288 km</description><styleUrl>#road</styleUrl><LineString><tessellate>1</tessellate><coordinates>119.907633,51.340062,0 119.905485,51.339645,0 119.909398,51.331219,0 119.915165,51.328940,0 119.948574,51.318479,0 119.954459,51.315980,0 119.961796,51.311227,0 119.967817,51.306075,0 119.974299,51.303499,0 119.983618,51.296986,0 119.989516,51.294386,0 119.991464,51.291727,0 119.997534,51.278396,0 120.000388,51.264269,0 120.002698,51.257129,0 120.013460,51.234201,0 120.016299,51.219398,0 120.019407,51.212082,0 120.020521,51.205205,0 120.021733,51.203019,0 120.033109,51.187873,0 120.034700,51.183250,0 120.035563,51.170850,0 120.036149,51.168349,0 120.046315,51.154924,0 120.046816,51.153069,0 120.046471,51.148281,0 120.051819,51.139911,0 120.054175,51.122483,0 120.053652,51.120114,0 120.049836,51.113141,0 120.049508,51.110892,0 120.052607,51.102307,0 120.052573,51.098984,0 120.055544,51.095166,0 120.056057,51.093331,0 120.055874,51.092152,0 120.055117,51.090151,0 120.053527,51.088178,0 120.048369,51.084578,0 120.040529,51.077665,0 120.039809,51.076576,0 120.039800,51.075245,0 120.045635,51.057797,0 120.046823,51.055627,0 120.055433,51.048726,0 120.063679,51.044821,0 120.065294,51.042739,0 120.065444,51.041108,0 120.059188,51.009944,0 120.059231,51.007892,0 120.062927,51.000794,0 120.064388,50.994530,0 120.064408,50.992665,0 120.059356,50.988522,0 120.055097,50.983183,0 120.050516,50.979585,0 120.044877,50.970423,0 120.035653,50.960721,0 120.034534,50.958981,0 120.034200,50.958276,0 120.034619,50.956273,0 120.038502,50.947120,0 120.037316,50.936650,0 120.036089,50.934151,0 120.029393,50.924772,0 120.025429,50.915330,0 120.022737,50.910288,0 120.006378,50.894043,0 120.004740,50.889854,0 119.998148,50.878658,0 119.994140,50.864242,0 119.991200,50.858124,0 119.986548,50.852630,0 119.981769,50.848816,0 119.978314,50.846652,0 119.956347,50.835447,0 119.939915,50.823632,0 119.936340,50.822509,0 119.931969,50.822052,0 119.922730,50.825343,0 119.916869,50.820942,0 119.913762,50.822477,0 119.916289,50.824092,0 119.921085,50.825886,0 119.931910,50.822080,0 119.950388,50.813256,0 119.955533,50.809815,0 119.966848,50.805734,0 119.971019,50.805149,0 119.981326,50.805583,0 120.004728,50.802114,0 120.011552,50.799520,0 120.020015,50.797613,0 120.033332,50.793470,0 120.039383,50.793784,0 120.060296,50.797752,0 120.084867,50.796111,0 120.092145,50.793607,0 120.111121,50.790175,0 120.115149,50.788641,0 120.118339,50.786197,0 120.122641,50.778949,0 120.132079,50.770800,0 120.134903,50.769385,0 120.138197,50.768771,0 120.141320,50.768780,0 120.150430,50.771685,0 120.155968,50.772192,0 120.170159,50.768204,0 120.188664,50.755953,0 120.190951,50.753234,0 120.193884,50.748230,0 120.196552,50.745066,0 120.204211,50.737284,0 120.216434,50.727159,0 120.240473,50.711396,0 120.245794,50.704802,0 120.249810,50.690616,0 120.249668,50.687092,0 120.244971,50.674607,0 120.242582,50.671490,0 120.237286,50.666597,0 120.233238,50.664207,0 120.224459,50.660679,0 120.218954,50.657427,0 120.203034,50.649390,0 120.182929,50.634174,0 120.176093,50.627606,0 120.163814,50.617911,0 120.157722,50.611978,0 120.150138,50.605913,0 120.144027,50.599110,0 120.143476,50.597109,0 120.144139,50.595694,0 120.158265,50.584571,0 120.160863,50.576019,0 120.160222,50.570725,0 120.157273,50.561383,0 120.153127,50.555573,0 120.128324,50.535446,0 120.127298,50.533909,0 120.126469,50.526522,0 120.125960,50.526524,0 120.126819,50.519548,0 120.126713,50.515793,0 120.126288,50.513443,0 120.123492,50.505592,0 120.119249,50.484650,0 120.119457,50.481008,0 120.121707,50.477009,0 120.125041,50.474197,0 120.131568,50.470730,0 120.133774,50.468256,0 120.135414,50.452868,0 120.136153,50.450465,0 120.137481,50.448584,0 120.140189,50.446477,0 120.153520,50.439089,0 120.168021,50.424014,0 120.179083,50.415195,0 120.189721,50.410004,0 120.198212,50.402131,0 120.211015,50.393762,0 120.218024,50.387538,0 120.229409,50.374440,0 120.240704,50.354965,0 120.243286,50.349100,0 120.246486,50.344006,0 120.252495,50.332324,0 120.265836,50.321145,0 120.267495,50.318835,0 120.267396,50.316966,0 120.266870,50.316065,0 120.252033,50.298393,0 120.250338,50.297161,0 120.234782,50.290503,0 120.233013,50.289017,0 120.224886,50.279252,0 120.213927,50.270654,0 120.212714,50.269057,0 120.207817,50.259096,0 120.197205,50.248361,0 120.193869,50.244408,0 120.177992,50.242650,0 120.178553,50.240601,0 120.178164,50.242574,0 120.194079,50.244426,0 120.198521,50.249512,0 120.227132,50.246390,0 120.267916,50.248023,0 120.306051,50.246638,0 120.343031,50.248735,0 120.402584,50.251281,0 120.419821,50.251225,0 120.439979,50.248304,0 120.442073,50.260817,0 120.443581,50.263714,0 120.445958,50.265995,0 120.449116,50.267763,0 120.452877,50.268998,0 120.467971,50.270614,0 120.471472,50.272053,0 120.473482,50.273752,0 120.474742,50.275969,0 120.483024,50.298487,0 120.485297,50.301991,0 120.487975,50.304267,0 120.492382,50.306579,0 120.510299,50.312561,0 120.517111,50.315845,0 120.531906,50.321015,0 120.543836,50.326540,0 120.560431,50.332388,0 120.565537,50.333165,0 120.570136,50.332525,0 120.574038,50.330671,0 120.578523,50.325727,0 120.582445,50.323639,0 120.595564,50.320977,0 120.600789,50.320839,0 120.614715,50.322974,0 120.620602,50.325092,0 120.653486,50.348504,0 120.657481,50.350498,0 120.662581,50.351928,0 120.670127,50.352421,0 120.684981,50.350626,0 120.701138,50.351599,0 120.721782,50.347555,0 120.728986,50.347148,0 120.795611,50.357652,0 120.800924,50.359117,0 120.803369,50.360400,0 120.806207,50.362860,0 120.808786,50.367833,0 120.810056,50.369367,0 120.818735,50.375719,0 120.820966,50.377942,0 120.822856,50.381440,0 120.823756,50.388402,0 120.824917,50.391002,0 120.826907,50.393220,0 120.833525,50.397997,0 120.836912,50.401067,0 120.839790,50.405064,0 120.844390,50.413781,0 120.847119,50.416404,0 120.850013,50.418203,0 120.857585,50.420677,0 120.920780,50.432514,0 120.934739,50.436946,0 120.965112,50.449811,0 120.973995,50.452117,0 120.998575,50.456691,0 121.003371,50.458222,0 121.008053,50.460983,0 121.032514,50.479955,0 121.038335,50.486092,0 121.042278,50.493308,0 121.045539,50.508313,0 121.047370,50.513331,0 121.051159,50.519257,0 121.055570,50.523830,0 121.073380,50.536558,0 121.084774,50.548382,0 121.089688,50.552217,0 121.128303,50.570374,0 121.132869,50.572986,0 121.138048,50.577269,0 121.141159,50.581349,0 121.143373,50.586615,0 121.146601,50.608769,0 121.147456,50.610999,0 121.166577,50.629274,0 121.170293,50.630641,0 121.221768,50.641536,0 121.266367,50.654792,0 121.269765,50.656920,0 121.299964,50.684405,0 121.304681,50.687020,0 121.334654,50.690715,0 121.352014,50.694869,0 121.361136,50.695424,0 121.386134,50.702997,0 121.423673,50.732385,0 121.426771,50.734625,0 121.431658,50.737240,0 121.447025,50.742273,0 121.452336,50.743583,0 121.458141,50.744345,0 121.479132,50.745500,0 121.483153,50.746434,0 121.486112,50.747823,0 121.488089,50.749821,0 121.487956,50.750904,0 121.486480,50.753350,0 121.486440,50.754497,0 121.488962,50.761109,0 121.490320,50.762473,0 121.493798,50.764600,0 121.499157,50.769876,0 121.508747,50.773027,0 121.512537,50.773824,0 121.531384,50.773949,0 121.537365,50.774504,0 121.536852,50.781162,0 121.533781,50.781066,0 121.533681,50.782538,0</coordinates></LineString></Placemark><Placemark><name>D5 9/19 根河 → 满归（S204）</name><description>实际路况很好，没有走施工便道。道路测算约 204 km</description><styleUrl>#road</styleUrl><LineString><tessellate>1</tessellate><coordinates>121.533681,50.782538,0 121.533646,50.783074,0 121.536722,50.783198,0 121.535739,50.796676,0 121.540258,50.797473,0 121.542468,50.803524,0 121.538583,50.810084,0 121.538522,50.813999,0 121.533631,50.820953,0 121.530980,50.823817,0 121.528120,50.830264,0 121.524242,50.833063,0 121.521231,50.836428,0 121.518501,50.845055,0 121.513338,50.851932,0 121.513068,50.856564,0 121.514371,50.858961,0 121.513134,50.864302,0 121.510525,50.869518,0 121.508844,50.870420,0 121.498541,50.871380,0 121.497530,50.870772,0 121.497365,50.865604,0 121.494927,50.865092,0 121.491471,50.867580,0 121.486896,50.869824,0 121.483773,50.874641,0 121.480129,50.876241,0 121.473256,50.877949,0 121.467432,50.878441,0 121.465428,50.879312,0 121.460960,50.882131,0 121.457390,50.886292,0 121.450229,50.888299,0 121.442643,50.893175,0 121.434439,50.896112,0 121.430504,50.898872,0 121.429585,50.900585,0 121.426224,50.903766,0 121.420969,50.905340,0 121.408824,50.907235,0 121.406791,50.908274,0 121.403874,50.911191,0 121.401958,50.911209,0 121.398810,50.909963,0 121.392789,50.910870,0 121.391916,50.911359,0 121.391205,50.912725,0 121.391325,50.914221,0 121.392167,50.916035,0 121.391854,50.916975,0 121.390857,50.917673,0 121.389450,50.917781,0 121.380208,50.915187,0 121.378075,50.915915,0 121.374353,50.918146,0 121.363255,50.926081,0 121.361357,50.929715,0 121.360215,50.936193,0 121.360975,50.942410,0 121.361933,50.943723,0 121.361959,50.944995,0 121.358052,50.949552,0 121.354438,50.950701,0 121.350791,50.953514,0 121.347445,50.957709,0 121.344183,50.959996,0 121.340477,50.964830,0 121.337633,50.965214,0 121.334310,50.969283,0 121.331597,50.974811,0 121.330123,50.976600,0 121.330995,50.979807,0 121.328054,50.988212,0 121.327366,50.992903,0 121.326258,50.995301,0 121.326226,50.996817,0 121.324402,50.998398,0 121.322880,51.002386,0 121.321615,51.003397,0 121.318468,51.003084,0 121.312217,51.004622,0 121.309328,51.006711,0 121.307092,51.011221,0 121.306092,51.011649,0 121.304741,51.011176,0 121.303592,51.011530,0 121.303329,51.012825,0 121.302230,51.013981,0 121.302114,51.015954,0 121.302850,51.018759,0 121.304517,51.020291,0 121.304200,51.022963,0 121.306664,51.027084,0 121.307047,51.028934,0 121.306434,51.029231,0 121.302260,51.028798,0 121.298254,51.029255,0 121.297351,51.029075,0 121.295544,51.027554,0 121.293168,51.027385,0 121.292535,51.027870,0 121.291964,51.031646,0 121.292816,51.032268,0 121.295141,51.032683,0 121.299367,51.036750,0 121.300473,51.042924,0 121.298842,51.044336,0 121.298666,51.045043,0 121.300159,51.048522,0 121.304826,51.053840,0 121.305536,51.057665,0 121.298276,51.066595,0 121.292962,51.069105,0 121.290660,51.069349,0 121.285300,51.077266,0 121.280362,51.081698,0 121.276151,51.083991,0 121.275556,51.084790,0 121.275093,51.087142,0 121.274546,51.090448,0 121.277575,51.150427,0 121.278540,51.150920,0 121.296237,51.153057,0 121.296951,51.153534,0 121.297657,51.155744,0 121.299142,51.157662,0 121.297307,51.163566,0 121.297679,51.173578,0 121.298758,51.179496,0 121.299963,51.182518,0 121.303072,51.183788,0 121.305521,51.186415,0 121.307495,51.192296,0 121.306216,51.194769,0 121.306593,51.202012,0 121.305755,51.209191,0 121.308231,51.213464,0 121.311706,51.216757,0 121.313978,51.224147,0 121.318607,51.232764,0 121.324495,51.239628,0 121.324452,51.240259,0 121.321741,51.242840,0 121.325691,51.248817,0 121.332203,51.251586,0 121.341852,51.253438,0 121.349660,51.257130,0 121.355729,51.259135,0 121.365951,51.263702,0 121.385244,51.265771,0 121.404797,51.273209,0 121.410666,51.271558,0 121.412629,51.271535,0 121.425320,51.279917,0 121.427030,51.284779,0 121.427909,51.285694,0 121.439956,51.291287,0 121.449020,51.293869,0 121.453709,51.292109,0 121.457795,51.292218,0 121.462206,51.292974,0 121.463772,51.294067,0 121.464040,51.294906,0 121.459855,51.298891,0 121.459181,51.300515,0 121.459556,51.301843,0 121.464469,51.305029,0 121.466672,51.307030,0 121.474628,51.311086,0 121.477956,51.312193,0 121.480451,51.315708,0 121.492056,51.322207,0 121.498726,51.332139,0 121.499607,51.335180,0 121.502312,51.338175,0 121.503142,51.339766,0 121.504215,51.340355,0 121.507100,51.340351,0 121.508587,51.342115,0 121.508118,51.347613,0 121.510010,51.352238,0 121.512896,51.355720,0 121.516262,51.366721,0 121.516810,51.369920,0 121.519169,51.372933,0 121.522225,51.374734,0 121.523800,51.386460,0 121.526080,51.391134,0 121.530002,51.395193,0 121.534234,51.398252,0 121.539691,51.403138,0 121.544651,51.408336,0 121.546863,51.415391,0 121.553818,51.419706,0 121.554525,51.420564,0 121.555171,51.423256,0 121.552685,51.424345,0 121.551486,51.428035,0 121.548063,51.430456,0 121.541798,51.432844,0 121.530552,51.434681,0 121.529799,51.435494,0 121.530191,51.436443,0 121.537796,51.438094,0 121.548692,51.441908,0 121.558885,51.442836,0 121.563860,51.446487,0 121.575839,51.450379,0 121.580190,51.452834,0 121.582377,51.457872,0 121.586731,51.463058,0 121.587969,51.463877,0 121.603986,51.466251,0 121.616440,51.472376,0 121.616981,51.473311,0 121.618212,51.473770,0 121.634888,51.468526,0 121.635507,51.468960,0 121.639417,51.479397,0 121.643646,51.480902,0 121.649559,51.485761,0 121.666571,51.486881,0 121.685343,51.495177,0 121.695920,51.494996,0 121.700451,51.497024,0 121.707298,51.503526,0 121.708692,51.505728,0 121.712290,51.507693,0 121.713272,51.510555,0 121.720336,51.515095,0 121.720246,51.516074,0 121.717142,51.521710,0 121.722111,51.528236,0 121.730665,51.537145,0 121.730435,51.538145,0 121.728042,51.539592,0 121.727912,51.541272,0 121.728594,51.542543,0 121.730246,51.543815,0 121.735231,51.546229,0 121.740366,51.548133,0 121.745539,51.553095,0 121.749151,51.558016,0 121.754630,51.558827,0 121.755091,51.560667,0 121.754581,51.563357,0 121.756551,51.566247,0 121.756392,51.567957,0 121.758951,51.570357,0 121.761880,51.575066,0 121.767177,51.579414,0 121.769035,51.583643,0 121.778693,51.591267,0 121.784074,51.593302,0 121.786020,51.597170,0 121.787737,51.598618,0 121.793015,51.601031,0 121.797465,51.604355,0 121.801584,51.606229,0 121.801684,51.610049,0 121.802712,51.611337,0 121.808714,51.613338,0 121.814786,51.618187,0 121.840090,51.622900,0 121.843657,51.622354,0 121.847553,51.619827,0 121.857530,51.618750,0 121.860939,51.619384,0 121.862225,51.620292,0 121.867172,51.626304,0 121.869446,51.627890,0 121.872369,51.632276,0 121.872289,51.633106,0 121.868699,51.635210,0 121.867942,51.636741,0 121.871812,51.640265,0 121.873507,51.641223,0 121.880670,51.642394,0 121.887337,51.645467,0 121.894135,51.645553,0 121.898771,51.649400,0 121.898950,51.650180,0 121.898411,51.650900,0 121.890074,51.655434,0 121.888777,51.656924,0 121.887420,51.659955,0 121.883348,51.660539,0 121.879777,51.663962,0 121.881534,51.668699,0 121.885815,51.671625,0 121.890227,51.672601,0 121.891136,51.674130,0 121.890488,51.678730,0 121.885170,51.686703,0 121.884186,51.688907,0 121.883272,51.689391,0 121.878430,51.689623,0 121.878054,51.690354,0 121.879113,51.690748,0 121.879948,51.690289,0 121.879919,51.689414,0 121.878270,51.689316,0 121.859900,51.690462,0 121.850680,51.694715,0 121.848057,51.697514,0 121.844400,51.699660,0 121.841710,51.702015,0 121.841771,51.707654,0 121.843765,51.711719,0 121.838615,51.720187,0 121.838914,51.721456,0 121.841446,51.725701,0 121.842523,51.728938,0 121.841188,51.732050,0 121.838199,51.733415,0 121.837452,51.736356,0 121.837762,51.737455,0 121.850269,51.743141,0 121.852712,51.748266,0 121.856251,51.751409,0 121.859521,51.755832,0 121.864417,51.760324,0 121.869683,51.763745,0 121.878770,51.767943,0 121.880197,51.769111,0 121.879741,51.781689,0 121.877926,51.785860,0 121.871783,51.794175,0 121.868863,51.804267,0 121.866520,51.805290,0 121.866152,51.806350,0 121.869294,51.811555,0 121.884978,51.822224,0 121.887224,51.825281,0 121.888663,51.834117,0 121.893955,51.839102,0 121.899389,51.843059,0 121.900848,51.846617,0 121.900678,51.847567,0 121.899290,51.849367,0 121.895955,51.851168,0 121.892780,51.852230,0 121.873386,51.853573,0 121.872363,51.856796,0 121.873274,51.863516,0 121.872706,51.867986,0 121.876956,51.874259,0 121.886867,51.884826,0 121.888524,51.885364,0 121.895442,51.884610,0 121.902194,51.884877,0 121.907411,51.886716,0 121.917249,51.892526,0 121.922132,51.898327,0 121.922673,51.901177,0 121.922293,51.902226,0 121.920603,51.903935,0 121.914702,51.906532,0 121.913843,51.907551,0 121.916954,51.915640,0 121.929182,51.924186,0 121.939978,51.928577,0 121.941481,51.930309,0 121.941171,51.932638,0 121.942865,51.935300,0 121.957070,51.943304,0 121.969118,51.944901,0 121.975963,51.947237,0 121.978222,51.949563,0 121.980834,51.957578,0 121.983606,51.960475,0 121.994109,51.961195,0 121.998538,51.960259,0 122.002435,51.960430,0 122.004444,51.960896,0 122.005690,51.961760,0 122.006390,51.963015,0 122.005571,51.967998,0 122.002899,51.970549,0 121.995407,51.973146,0 121.988579,51.973926,0 121.987344,51.974672,0 121.987053,51.977670,0 121.987445,51.978591,0 121.996103,51.984525,0 121.996445,51.985766,0 121.996124,51.987354,0 121.994457,51.990798,0 121.995191,51.992630,0 121.994528,51.993148,0 121.990752,51.993897,0 121.987740,51.995458,0 121.985883,51.997652,0 121.975815,52.005052,0 121.975554,52.005681,0 121.975971,52.007322,0 121.976935,52.007964,0 121.978390,52.008108,0 121.989751,52.006820,0 121.995926,52.005269,0 122.003851,52.004313,0 122.012700,52.006529,0 122.016166,52.009809,0 122.017432,52.015511,0 122.012513,52.025914,0 122.012373,52.027103,0 122.012976,52.028265,0 122.019676,52.035243,0 122.030532,52.040193,0 122.033635,52.041142,0 122.035382,52.043816,0 122.037822,52.045612,0 122.038294,52.047373,0 122.039128,52.048325,0 122.046200,52.050321,0 122.048131,52.050055,0 122.052915,52.047039,0 122.052480,52.043986,0 122.054414,52.043892,0 122.054044,52.040336,0 122.056296,52.040409,0</coordinates></LineString></Placemark><Placemark><name>D5 9/19 满归 → 漠河（漠满公路）</name><description>当天从根河直达漠河，当晚住漠河。道路测算约 139 km</description><styleUrl>#road</styleUrl><LineString><tessellate>1</tessellate><coordinates>122.056296,52.040409,0 122.054044,52.040336,0 122.054422,52.043966,0 122.052492,52.044055,0 122.052915,52.047039,0 122.057117,52.048758,0 122.071289,52.048981,0 122.074647,52.050702,0 122.074974,52.052711,0 122.075941,52.053905,0 122.082061,52.056445,0 122.087618,52.060270,0 122.088269,52.061270,0 122.087869,52.062379,0 122.080973,52.069431,0 122.080953,52.071820,0 122.078231,52.080855,0 122.078933,52.083166,0 122.081157,52.086047,0 122.085363,52.093880,0 122.086266,52.101469,0 122.088029,52.108579,0 122.089370,52.111350,0 122.090112,52.114550,0 122.088331,52.116828,0 122.088402,52.119837,0 122.088032,52.121787,0 122.087401,52.122636,0 122.084949,52.123474,0 122.077249,52.123825,0 122.072872,52.126278,0 122.072311,52.127497,0 122.072473,52.134246,0 122.076782,52.141421,0 122.084794,52.146139,0 122.090771,52.153513,0 122.094304,52.160754,0 122.093655,52.166572,0 122.094596,52.168803,0 122.096407,52.170123,0 122.107836,52.175224,0 122.122382,52.184437,0 122.134413,52.199595,0 122.136798,52.205791,0 122.138435,52.206589,0 122.145058,52.207570,0 122.157992,52.216839,0 122.160116,52.221725,0 122.165350,52.226345,0 122.169466,52.228237,0 122.182376,52.242992,0 122.199801,52.254810,0 122.214839,52.260946,0 122.261440,52.274785,0 122.281554,52.276996,0 122.292502,52.276758,0 122.304659,52.282165,0 122.311095,52.281976,0 122.318354,52.279639,0 122.331061,52.278813,0 122.332345,52.279545,0 122.338726,52.287417,0 122.347373,52.291603,0 122.350062,52.294308,0 122.358546,52.297943,0 122.359800,52.299005,0 122.362247,52.302919,0 122.364122,52.304052,0 122.375991,52.307129,0 122.384517,52.308359,0 122.394292,52.312367,0 122.406801,52.314533,0 122.412551,52.314843,0 122.417530,52.316282,0 122.421437,52.315520,0 122.427062,52.316536,0 122.435032,52.319169,0 122.449710,52.325458,0 122.457080,52.332044,0 122.470007,52.339666,0 122.471323,52.342522,0 122.473415,52.345447,0 122.476105,52.347090,0 122.476456,52.351021,0 122.477391,52.354047,0 122.482224,52.362675,0 122.480704,52.364091,0 122.474781,52.365540,0 122.473949,52.366602,0 122.474164,52.367536,0 122.475841,52.368562,0 122.480223,52.369561,0 122.484336,52.371399,0 122.485322,52.372407,0 122.486457,52.375544,0 122.492979,52.377585,0 122.497021,52.380664,0 122.498156,52.382440,0 122.499083,52.385788,0 122.501005,52.389883,0 122.504908,52.393821,0 122.506273,52.403478,0 122.510237,52.412937,0 122.513164,52.416599,0 122.515107,52.423664,0 122.520245,52.427610,0 122.526768,52.436612,0 122.527874,52.442100,0 122.543423,52.449200,0 122.544281,52.449958,0 122.544380,52.451028,0 122.541901,52.458625,0 122.545450,52.465428,0 122.546557,52.470066,0 122.550713,52.474057,0 122.550585,52.481089,0 122.555889,52.484939,0 122.560179,52.491322,0 122.558933,52.497805,0 122.559193,52.499805,0 122.563423,52.506659,0 122.566836,52.508854,0 122.569111,52.509100,0 122.582927,52.504252,0 122.586444,52.503779,0 122.592410,52.505005,0 122.614130,52.507535,0 122.616022,52.508116,0 122.618216,52.511448,0 122.639836,52.530585,0 122.640378,52.531566,0 122.639727,52.534046,0 122.640168,52.534916,0 122.642104,52.536399,0 122.648614,52.538260,0 122.659462,52.546480,0 122.670101,52.552682,0 122.671648,52.558376,0 122.675142,52.562364,0 122.675916,52.566057,0 122.675887,52.570108,0 122.695365,52.593493,0 122.695295,52.594653,0 122.693499,52.597511,0 122.685229,52.601777,0 122.683332,52.605255,0 122.683202,52.606575,0 122.686115,52.614424,0 122.682474,52.625851,0 122.674917,52.632560,0 122.664058,52.639042,0 122.654649,52.658544,0 122.654640,52.662385,0 122.660300,52.666247,0 122.662630,52.671293,0 122.662463,52.689822,0 122.660135,52.692569,0 122.658189,52.695957,0 122.653233,52.699050,0 122.652009,52.700879,0 122.652070,52.701769,0 122.653887,52.705154,0 122.653486,52.709546,0 122.652202,52.710494,0 122.647317,52.712427,0 122.646023,52.713726,0 122.645893,52.715997,0 122.648221,52.720463,0 122.648192,52.721943,0 122.644131,52.727660,0 122.642256,52.732970,0 122.638848,52.737988,0 122.639159,52.741410,0 122.640574,52.745044,0 122.641007,52.751068,0 122.633999,52.756652,0 122.630382,52.764042,0 122.630002,52.768634,0 122.630784,52.769956,0 122.631527,52.773389,0 122.634606,52.779005,0 122.635088,52.784089,0 122.631992,52.790389,0 122.626781,52.794276,0 122.623135,52.799206,0 122.610159,52.805633,0 122.604966,52.811515,0 122.604476,52.813036,0 122.605848,52.818620,0 122.605669,52.824773,0 122.607191,52.827115,0 122.607126,52.829024,0 122.601789,52.833879,0 122.599890,52.836561,0 122.594401,52.839814,0 122.593061,52.841396,0 122.593170,52.847355,0 122.592825,52.848566,0 122.589983,52.851852,0 122.588337,52.855246,0 122.586586,52.860650,0 122.587701,52.872699,0 122.584115,52.877465,0 122.582118,52.878577,0 122.581459,52.879569,0 122.574089,52.882565,0 122.574065,52.883630,0 122.577216,52.885557,0 122.577126,52.886518,0 122.570509,52.889238,0 122.566758,52.891316,0 122.562040,52.894146,0 122.560784,52.895899,0 122.560824,52.898791,0 122.563777,52.901647,0 122.562132,52.907624,0 122.563719,52.911954,0 122.562593,52.914638,0 122.561368,52.922735,0 122.569910,52.933979,0 122.584479,52.942617,0 122.586869,52.944457,0 122.593872,52.944214,0 122.593267,52.950165,0 122.583061,52.955968,0 122.571597,52.959089,0 122.564888,52.971346,0 122.568285,52.974168,0 122.562759,52.976490,0 122.561360,52.978334,0 122.539531,52.973845,0</coordinates></LineString></Placemark><Placemark><name>D6 9/20 漠河 → 北红村</name><description>当天去了龙江第一湾（路线见下一段），当晚住北红村</description><styleUrl>#road</styleUrl><LineString><tessellate>1</tessellate><coordinates>122.539531,52.973845,0 122.529327,52.971758,0 122.526814,52.974737,0 122.526028,52.975015,0 122.486932,52.966215,0 122.485235,52.972521,0 122.483932,52.975547,0 122.463892,53.009829,0 122.461216,53.012529,0 122.457957,53.014024,0 122.443965,53.018578,0 122.416486,53.021078,0 122.394924,53.025081,0 122.391783,53.026112,0 122.388591,53.028446,0 122.373307,53.047257,0 122.372628,53.048775,0 122.372741,53.050015,0 122.375248,53.055867,0 122.380517,53.060496,0 122.380556,53.062650,0 122.376085,53.070026,0 122.369761,53.074960,0 122.368521,53.076444,0 122.368060,53.078311,0 122.368385,53.084910,0 122.367531,53.086851,0 122.360783,53.092291,0 122.357082,53.098138,0 122.338318,53.113955,0 122.336798,53.115812,0 122.333411,53.131556,0 122.335173,53.140526,0 122.334912,53.142315,0 122.330425,53.150283,0 122.325080,53.156828,0 122.323093,53.160006,0 122.312224,53.169875,0 122.308383,53.176405,0 122.302307,53.180585,0 122.296005,53.190355,0 122.288181,53.197529,0 122.283176,53.203757,0 122.270150,53.211059,0 122.268598,53.212361,0 122.262955,53.221384,0 122.250810,53.229823,0 122.245103,53.234794,0 122.228714,53.241594,0 122.226768,53.242877,0 122.225879,53.244196,0 122.226001,53.246208,0 122.226889,53.247386,0 122.241241,53.254599,0 122.243097,53.255937,0 122.244125,53.257507,0 122.244137,53.259082,0 122.243084,53.261498,0 122.236771,53.273323,0 122.236034,53.275657,0 122.236771,53.279084,0 122.241024,53.287184,0 122.239932,53.297066,0 122.240918,53.299048,0 122.242819,53.300325,0 122.254946,53.305801,0 122.264612,53.309311,0 122.269974,53.312159,0 122.281250,53.319919,0 122.291161,53.324644,0 122.289825,53.326807,0 122.293458,53.330347,0 122.315346,53.334140,0 122.325745,53.332726,0 122.328121,53.332021,0 122.334906,53.328079,0 122.344356,53.323874,0 122.349943,53.319700,0 122.354371,53.317070,0 122.361638,53.315388,0 122.369507,53.310276,0 122.380174,53.308590,0 122.396496,53.304119,0 122.400051,53.303822,0 122.412392,53.304535,0 122.420912,53.303014,0 122.425528,53.301455,0 122.430502,53.300809,0 122.437595,53.300763,0 122.446789,53.303190,0 122.456214,53.304591,0 122.472515,53.301303,0 122.477714,53.298651,0 122.483626,53.298235,0 122.486474,53.296475,0 122.488545,53.296315,0 122.490636,53.297273,0 122.493115,53.299974,0 122.496354,53.301680,0 122.506390,53.305234,0 122.510376,53.308583,0 122.512447,53.309386,0 122.517939,53.315185,0 122.520907,53.316338,0 122.527547,53.317715,0 122.536146,53.322331,0 122.537654,53.323555,0 122.539603,53.326808,0 122.547850,53.330137,0 122.551729,53.335210,0 122.552672,53.335298,0 122.555840,53.333850,0 122.556905,53.333922,0 122.558426,53.334850,0 122.560274,53.334829,0 122.562314,53.337082,0 122.562694,53.340366,0 122.564025,53.342582,0 122.567472,53.344461,0 122.571072,53.348682,0 122.572067,53.350494,0 122.580485,53.352754,0 122.583630,53.356396,0 122.586228,53.357695,0 122.594273,53.358813,0 122.597609,53.360847,0 122.599891,53.361344,0 122.607200,53.360508,0 122.611752,53.361472,0 122.614050,53.363036,0 122.619090,53.364516,0 122.629741,53.364477,0 122.636210,53.368164,0 122.637471,53.368422,0 122.643936,53.368885,0 122.655489,53.366310,0 122.660439,53.368939,0 122.668433,53.368224,0 122.677155,53.368765,0 122.685025,53.366631,0 122.686778,53.366536,0 122.694651,53.369325,0 122.699444,53.369903,0 122.704734,53.371660,0 122.708086,53.371805,0 122.714507,53.370595,0 122.722553,53.371003,0 122.727111,53.368997,0 122.734240,53.368114,0 122.739611,53.365948,0 122.744317,53.365762,0 122.751752,53.366565,0 122.755626,53.366198,0 122.759756,53.364110,0 122.767957,53.364061,0 122.778509,53.362725,0 122.786867,53.360375,0 122.789242,53.360191,0 122.794171,53.361204,0 122.800681,53.365136,0 122.815196,53.368539,0 122.819019,53.370826,0 122.821229,53.372793,0 122.821969,53.374403,0 122.831546,53.381458,0 122.838682,53.381043,0 122.841947,53.381307,0 122.847833,53.383393,0 122.856761,53.387497,0 122.867989,53.390176,0 122.872289,53.391783,0 122.878072,53.391885,0 122.888738,53.393189,0 122.896565,53.392696,0 122.918219,53.400446,0 122.924101,53.400422,0 122.928785,53.398489,0 122.935360,53.397588,0 122.943073,53.397379,0 122.949352,53.398819,0 122.956206,53.398505,0 122.959402,53.396921,0 122.962522,53.396089,0 122.972894,53.397787,0 122.979939,53.396971,0 122.984358,53.397573,0 122.991309,53.395460,0 123.000423,53.391494,0 123.005532,53.390332,0 123.017679,53.390009,0 123.034161,53.385250,0 123.038984,53.385650,0 123.042154,53.386903,0 123.044612,53.387179,0 123.050501,53.386149,0 123.061898,53.385678,0 123.069503,53.388799,0 123.074948,53.388866,0 123.078411,53.387757,0 123.083128,53.383800,0 123.086530,53.382761,0 123.091379,53.386092,0 123.093835,53.388944,0 123.094301,53.390315,0 123.093926,53.392280,0 123.095339,53.395707,0 123.094414,53.401385,0 123.093173,53.403812,0 123.090547,53.406402,0 123.091338,53.407464,0 123.091107,53.410012,0 123.093131,53.415879,0 123.091508,53.419505,0 123.091110,53.423083,0 123.089214,53.425550,0 123.084862,53.427751,0 123.079958,53.428947,0 123.079112,53.429438,0 123.078610,53.430916,0 123.077284,53.432024,0 123.068731,53.435636,0 123.067029,53.437277,0 123.066506,53.438413,0 123.066664,53.440716,0 123.065168,53.443804,0 123.067117,53.449625,0 123.066724,53.451285,0 123.068757,53.455639,0 123.068586,53.457110,0 123.070276,53.461564,0 123.071453,53.468390,0 123.071176,53.470330,0 123.069785,53.472820,0 123.070433,53.475967,0 123.071736,53.478705,0 123.066777,53.487666,0 123.063197,53.490465,0 123.061318,53.493298,0 123.065041,53.502459,0 123.068239,53.503819,0 123.073702,53.504561,0</coordinates></LineString></Placemark><Placemark><name>D6–D7 北红村 → 乌苏里浅滩 / 龙江第一湾 → 北极村 → 漠河</name><description>9/20 去龙江第一湾；9/21 乌苏里浅滩、北极村，傍晚回漠河住麗枫酒店</description><styleUrl>#road</styleUrl><LineString><tessellate>1</tessellate><coordinates>123.073702,53.504561,0 123.068239,53.503819,0 123.065041,53.502459,0 123.061318,53.493298,0 123.063197,53.490465,0 123.066777,53.487666,0 123.071736,53.478705,0 123.070433,53.475967,0 123.069785,53.472820,0 123.071176,53.470330,0 123.071453,53.468390,0 123.070276,53.461564,0 123.068586,53.457110,0 123.068757,53.455639,0 123.066724,53.451285,0 123.067117,53.449625,0 123.065580,53.445735,0 123.065221,53.443490,0 123.066664,53.440716,0 123.066506,53.438413,0 123.067029,53.437277,0 123.068731,53.435636,0 123.077284,53.432024,0 123.078610,53.430916,0 123.079112,53.429438,0 123.079958,53.428947,0 123.084862,53.427751,0 123.089214,53.425550,0 123.090967,53.423401,0 123.091613,53.419137,0 123.093131,53.415879,0 123.091107,53.410012,0 123.091338,53.407464,0 123.090547,53.406402,0 123.093173,53.403812,0 123.094414,53.401385,0 123.095339,53.395707,0 123.093926,53.392280,0 123.094301,53.390315,0 123.093835,53.388944,0 123.091379,53.386092,0 123.086530,53.382761,0 123.089809,53.381895,0 123.095882,53.381688,0 123.122193,53.386006,0 123.125368,53.384721,0 123.139835,53.384227,0 123.144027,53.386669,0 123.148881,53.387452,0 123.153691,53.387590,0 123.158866,53.386970,0 123.163705,53.387345,0 123.171303,53.386259,0 123.172619,53.387091,0 123.173171,53.389019,0 123.178096,53.390291,0 123.179436,53.391609,0 123.180158,53.392761,0 123.180443,53.395287,0 123.186524,53.398203,0 123.203905,53.399151,0 123.209876,53.398095,0 123.216266,53.398758,0 123.222867,53.398619,0 123.234085,53.401074,0 123.239272,53.404565,0 123.246590,53.403981,0 123.243161,53.407074,0 123.235347,53.409715,0 123.236525,53.415049,0 123.221499,53.431771,0 123.222243,53.432915,0 123.223450,53.433162,0 123.228372,53.432237,0 123.230763,53.431249,0 123.232006,53.431427,0 123.237624,53.437995,0 123.243894,53.458498,0 123.266772,53.481038,0 123.280903,53.486022,0 123.284037,53.488833,0 123.286586,53.496695,0 123.283931,53.502363,0 123.272672,53.512001,0 123.271291,53.513801,0 123.265424,53.523367,0 123.264681,53.525991,0 123.265069,53.530739,0 123.269334,53.533686,0 123.279206,53.538014,0 123.280539,53.540493,0 123.283308,53.542802,0 123.286735,53.549024,0 123.290714,53.550456,0 123.293833,53.550795,0 123.295938,53.552062,0 123.296158,53.552784,0 123.287683,53.559065,0 123.277608,53.560108,0 123.269277,53.559241,0 123.268761,53.558642,0 123.269277,53.559241,0 123.271362,53.559637,0 123.277608,53.560108,0 123.287683,53.559065,0 123.295831,53.553361,0 123.295938,53.552062,0 123.293833,53.550795,0 123.300032,53.549690,0 123.304466,53.548115,0 123.308944,53.548021,0 123.325268,53.542004,0 123.327249,53.542161,0 123.334100,53.540414,0 123.346551,53.543116,0 123.352754,53.543025,0 123.355175,53.542026,0 123.356501,53.539805,0 123.358008,53.539234,0 123.361452,53.535617,0 123.398538,53.526551,0 123.415983,53.523789,0 123.423057,53.526092,0 123.430976,53.526053,0 123.435722,53.525463,0 123.437577,53.523734,0 123.427739,53.523171,0 123.426302,53.522023,0 123.426731,53.520607,0 123.428467,53.517542,0 123.429709,53.512692,0 123.433116,53.509523,0 123.441857,53.505058,0 123.444163,53.505294,0 123.446440,53.504923,0 123.451364,53.502872,0 123.451064,53.501685,0 123.449479,53.500578,0 123.449950,53.499262,0 123.449821,53.497538,0 123.452239,53.495222,0 123.450976,53.493463,0 123.447443,53.492026,0 123.444359,53.488876,0 123.448290,53.485392,0 123.450067,53.485670,0 123.461217,53.489889,0 123.465003,53.490047,0 123.469515,53.491186,0 123.475308,53.488656,0 123.480865,53.487045,0 123.485096,53.486420,0 123.486997,53.488190,0 123.492659,53.489183,0 123.519611,53.497821,0 123.522416,53.498302,0 123.520720,53.501359,0 123.518675,53.502888,0 123.520720,53.501359,0 123.522416,53.498302,0 123.519611,53.497821,0 123.492659,53.489183,0 123.486997,53.488190,0 123.485096,53.486420,0 123.480865,53.487045,0 123.475308,53.488656,0 123.469515,53.491186,0 123.465003,53.490047,0 123.461217,53.489889,0 123.450067,53.485670,0 123.448290,53.485392,0 123.444359,53.488876,0 123.447443,53.492026,0 123.450976,53.493463,0 123.452239,53.495222,0 123.449821,53.497538,0 123.449950,53.499262,0 123.449479,53.500578,0 123.451064,53.501685,0 123.451364,53.502872,0 123.446440,53.504923,0 123.444163,53.505294,0 123.441857,53.505058,0 123.433116,53.509523,0 123.429709,53.512692,0 123.428467,53.517542,0 123.426302,53.522023,0 123.428554,53.523387,0 123.437577,53.523734,0 123.435722,53.525463,0 123.426654,53.526238,0 123.421283,53.525650,0 123.414517,53.523096,0 123.413098,53.519741,0 123.412203,53.511858,0 123.406998,53.507462,0 123.404570,53.503784,0 123.403989,53.501384,0 123.400044,53.499305,0 123.390521,53.496911,0 123.390155,53.495263,0 123.391895,53.492200,0 123.382553,53.485444,0 123.378142,53.482323,0 123.360404,53.476509,0 123.346154,53.472437,0 123.344961,53.471460,0 123.341352,53.470425,0 123.337539,53.468310,0 123.337461,53.465892,0 123.335511,53.464188,0 123.334994,53.462762,0 123.331891,53.459849,0 123.331115,53.458390,0 123.333225,53.455653,0 123.334724,53.451894,0 123.335689,53.445475,0 123.336497,53.444332,0 123.335701,53.440223,0 123.334578,53.439195,0 123.336904,53.435971,0 123.342204,53.432486,0 123.343181,53.429908,0 123.348588,53.428780,0 123.354543,53.428630,0 123.360435,53.427090,0 123.366062,53.423809,0 123.366126,53.423214,0 123.365712,53.422152,0 123.363012,53.421191,0 123.358875,53.421248,0 123.347807,53.420049,0 123.339754,53.420340,0 123.336986,53.419688,0 123.332601,53.417745,0 123.329612,53.415375,0 123.327796,53.412608,0 123.327689,53.412163,0 123.329132,53.410861,0 123.330359,53.408211,0 123.329954,53.407187,0 123.328107,53.406339,0 123.320385,53.405655,0 123.312497,53.405910,0 123.304832,53.407728,0 123.302346,53.407181,0 123.290406,53.406425,0 123.271409,53.398233,0 123.268508,53.397883,0 123.266327,53.396977,0 123.262991,53.398524,0 123.260982,53.398003,0 123.259635,53.398217,0 123.259002,53.400156,0 123.258024,53.400649,0 123.255281,53.400167,0 123.252401,53.400281,0 123.246116,53.404158,0 123.239632,53.404644,0 123.234085,53.401074,0 123.222867,53.398619,0 123.216266,53.398758,0 123.209876,53.398095,0 123.203905,53.399151,0 123.186524,53.398203,0 123.180443,53.395287,0 123.180158,53.392761,0 123.179436,53.391609,0 123.178096,53.390291,0 123.173171,53.389019,0 123.172619,53.387091,0 123.171303,53.386259,0 123.163705,53.387345,0 123.158866,53.386970,0 123.153691,53.387590,0 123.148881,53.387452,0 123.144027,53.386669,0 123.139835,53.384227,0 123.125368,53.384721,0 123.122193,53.386006,0 123.095882,53.381688,0 123.089809,53.381895,0 123.083519,53.383655,0 123.078411,53.387757,0 123.074948,53.388866,0 123.069503,53.388799,0 123.061898,53.385678,0 123.050501,53.386149,0 123.044612,53.387179,0 123.042154,53.386903,0 123.038984,53.385650,0 123.034161,53.385250,0 123.017679,53.390009,0 123.005532,53.390332,0 123.000423,53.391494,0 122.991309,53.395460,0 122.984358,53.397573,0 122.979939,53.396971,0 122.972894,53.397787,0 122.962522,53.396089,0 122.959402,53.396921,0 122.956206,53.398505,0 122.949352,53.398819,0 122.943073,53.397379,0 122.935360,53.397588,0 122.928785,53.398489,0 122.924101,53.400422,0 122.918219,53.400446,0 122.896565,53.392696,0 122.888738,53.393189,0 122.878072,53.391885,0 122.872289,53.391783,0 122.867989,53.390176,0 122.856761,53.387497,0 122.847833,53.383393,0 122.841947,53.381307,0 122.838682,53.381043,0 122.831546,53.381458,0 122.821969,53.374403,0 122.821229,53.372793,0 122.819019,53.370826,0 122.815196,53.368539,0 122.800681,53.365136,0 122.794171,53.361204,0 122.789242,53.360191,0 122.786867,53.360375,0 122.778509,53.362725,0 122.767957,53.364061,0 122.759756,53.364110,0 122.755626,53.366198,0 122.751752,53.366565,0 122.744317,53.365762,0 122.739611,53.365948,0 122.734240,53.368114,0 122.727111,53.368997,0 122.722553,53.371003,0 122.714507,53.370595,0 122.709089,53.371776,0 122.704734,53.371660,0 122.699444,53.369903,0 122.694651,53.369325,0 122.686778,53.366536,0 122.685025,53.366631,0 122.677155,53.368765,0 122.668433,53.368224,0 122.660439,53.368939,0 122.655489,53.366310,0 122.643936,53.368885,0 122.637471,53.368422,0 122.636210,53.368164,0 122.629741,53.364477,0 122.619090,53.364516,0 122.614050,53.363036,0 122.611752,53.361472,0 122.607200,53.360508,0 122.599593,53.361324,0 122.597609,53.360847,0 122.594273,53.358813,0 122.586825,53.357873,0 122.583969,53.356682,0 122.580485,53.352754,0 122.571819,53.350336,0 122.571072,53.348682,0 122.567472,53.344461,0 122.564025,53.342582,0 122.562694,53.340366,0 122.562314,53.337082,0 122.560274,53.334829,0 122.558426,53.334850,0 122.556905,53.333922,0 122.555840,53.333850,0 122.552672,53.335298,0 122.551729,53.335210,0 122.547850,53.330137,0 122.539603,53.326808,0 122.537654,53.323555,0 122.536146,53.322331,0 122.527547,53.317715,0 122.520907,53.316338,0 122.517939,53.315185,0 122.512447,53.309386,0 122.510376,53.308583,0 122.506390,53.305234,0 122.496354,53.301680,0 122.493115,53.299974,0 122.490636,53.297273,0 122.488166,53.296270,0 122.485687,53.296790,0 122.483626,53.298235,0 122.477714,53.298651,0 122.472515,53.301303,0 122.456214,53.304591,0 122.446789,53.303190,0 122.437595,53.300763,0 122.430502,53.300809,0 122.425528,53.301455,0 122.420912,53.303014,0 122.412392,53.304535,0 122.400051,53.303822,0 122.396496,53.304119,0 122.380174,53.308590,0 122.369507,53.310276,0 122.362183,53.315125,0 122.354371,53.317070,0 122.349943,53.319700,0 122.344356,53.323874,0 122.334906,53.328079,0 122.328121,53.332021,0 122.325745,53.332726,0 122.313991,53.334097,0 122.293940,53.330527,0 122.292587,53.329747,0 122.289851,53.326864,0 122.289885,53.326163,0 122.291161,53.324644,0 122.293792,53.326134,0 122.295439,53.328030,0 122.295488,53.329702,0 122.294147,53.331491,0 122.291603,53.332913,0 122.271109,53.341086,0 122.269080,53.342502,0 122.267661,53.344214,0 122.261539,53.357936,0 122.265618,53.373302,0 122.265863,53.386891,0 122.264558,53.389544,0 122.254952,53.397047,0 122.253827,53.398595,0 122.253515,53.408525,0 122.251762,53.414637,0 122.252107,53.416633,0 122.253847,53.418210,0 122.256215,53.419041,0 122.268392,53.420971,0 122.275058,53.425108,0 122.277227,53.425920,0 122.307601,53.430806,0 122.320981,53.436693,0 122.327123,53.441567,0 122.334834,53.446343,0 122.343505,53.453277,0 122.346906,53.455044,0 122.347853,53.456159,0 122.352348,53.458840,0 122.355608,53.461597,0 122.360358,53.478376,0 122.357351,53.481721,0 122.360853,53.482679,0 122.362208,53.480757,0 122.359058,53.479928,0 122.360299,53.478544,0 122.360290,53.477953,0 122.355608,53.461597,0 122.352348,53.458840,0 122.347853,53.456159,0 122.346906,53.455044,0 122.343505,53.453277,0 122.334834,53.446343,0 122.326977,53.441609,0 122.320911,53.436786,0 122.307483,53.430884,0 122.277071,53.426008,0 122.274254,53.424791,0 122.268347,53.421101,0 122.255999,53.419100,0 122.252635,53.417493,0 122.251543,53.415095,0 122.253303,53.408603,0 122.253621,53.398724,0 122.254829,53.396978,0 122.264030,53.389847,0 122.265648,53.387070,0 122.265449,53.373310,0 122.261374,53.357936,0 122.267504,53.344136,0 122.270122,53.341459,0 122.272011,53.340511,0 122.292800,53.332218,0 122.295022,53.330410,0 122.295439,53.328628,0 122.294912,53.327415,0 122.293180,53.325871,0 122.281246,53.320039,0 122.269673,53.312128,0 122.262107,53.308281,0 122.254802,53.305860,0 122.242773,53.300430,0 122.240438,53.298695,0 122.239790,53.296496,0 122.240909,53.287389,0 122.236103,53.277851,0 122.235933,53.275054,0 122.243657,53.259902,0 122.244004,53.258009,0 122.243520,53.256773,0 122.242153,53.255325,0 122.226639,53.247512,0 122.225534,53.245261,0 122.226091,53.243512,0 122.229021,53.241319,0 122.244041,53.235291,0 122.250786,53.229646,0 122.262083,53.221872,0 122.263598,53.220480,0 122.268380,53.212285,0 122.269881,53.211040,0 122.282840,53.203834,0 122.288036,53.197487,0 122.295866,53.190266,0 122.302074,53.180577,0 122.308234,53.176352,0 122.312032,53.169850,0 122.322944,53.159958,0 122.325607,53.155630,0 122.330233,53.150241,0 122.334644,53.142449,0 122.334955,53.140493,0 122.333247,53.131578,0 122.336695,53.115704,0 122.339027,53.113187,0 122.356914,53.098122,0 122.360588,53.092317,0 122.367352,53.086870,0 122.368264,53.084660,0 122.367915,53.078200,0 122.368378,53.076396,0 122.369619,53.074921,0 122.376062,53.069860,0 122.380078,53.063183,0 122.380600,53.061971,0 122.380284,53.060452,0 122.375095,53.055922,0 122.372416,53.048800,0 122.373105,53.047225,0 122.388599,53.028075,0 122.393241,53.025398,0 122.416398,53.020912,0 122.443841,53.018500,0 122.457847,53.013942,0 122.461081,53.012466,0 122.463734,53.009804,0 122.483760,52.975575,0 122.485084,52.972493,0 122.486717,52.965882,0 122.526333,52.975059,0 122.529327,52.971758,0 122.539531,52.973845,0</coordinates></LineString></Placemark><Placemark><name>D8 9/22 漠河市区 → 漠河古莲机场</name><description>12:45 起飞。道路测算约 11 km</description><styleUrl>#road</styleUrl><LineString><tessellate>1</tessellate><coordinates>122.539531,52.973845,0 122.529327,52.971758,0 122.529858,52.970750,0 122.529441,52.969192,0 122.529875,52.962921,0 122.528915,52.960159,0 122.528077,52.959317,0 122.519537,52.955458,0 122.515658,52.954822,0 122.512100,52.953577,0 122.482950,52.939664,0 122.476154,52.932865,0 122.473808,52.931228,0 122.471643,52.930539,0 122.468528,52.930344,0 122.451765,52.932054,0 122.436150,52.931100,0 122.433896,52.930279,0 122.427843,52.926636,0 122.426784,52.926578,0 122.430857,52.924016,0</coordinates></LineString></Placemark></Folder><Folder><name>过夜点</name><Placemark><name>D1 9/15 海拉尔</name><description>15:25 落地海拉尔；宿 溪隐酒店（古城店）</description><styleUrl>#stay</styleUrl><Point><coordinates>119.824389,49.233974,0</coordinates></Point></Placemark><Placemark><name>D2 9/16 黑山头</name><description>宿 野马无缰天边民宿</description><styleUrl>#stay</styleUrl><Point><coordinates>119.578554,50.214902,0</coordinates></Point></Placemark><Placemark><name>D3 9/17 室韦</name><description>宿 巴扬宾馆</description><styleUrl>#stay</styleUrl><Point><coordinates>119.907847,51.339628,0</coordinates></Point></Placemark><Placemark><name>D4 9/18 根河</name><description>宿 林城伴山酒店</description><styleUrl>#stay</styleUrl><Point><coordinates>121.532079,50.782498,0</coordinates></Point></Placemark><Placemark><name>满归（途经）</name><description>原计划住北兴宾馆，实际当天直达漠河未住</description><styleUrl>#spot</styleUrl><Point><coordinates>122.056263,52.040817,0</coordinates></Point></Placemark><Placemark><name>D6 9/20 北红村</name><description>宿 金红雪屋农家院</description><styleUrl>#stay</styleUrl><Point><coordinates>123.073846,53.504189,0</coordinates></Point></Placemark><Placemark><name>D5 9/19 · D7 9/21 漠河</name><description>两晚住漠河；D7 宿 麗枫酒店（北极星广场松苑公园店）</description><styleUrl>#stay</styleUrl><Point><coordinates>122.540049,52.972926,0</coordinates></Point></Placemark><Placemark><name>D8 9/22 漠河古莲机场</name><description>12:45 起飞</description><styleUrl>#stay</styleUrl><Point><coordinates>122.436842,52.914946,0</coordinates></Point></Placemark></Folder><Folder><name>途经景点</name><Placemark><name>莫尔格勒河景区</name><description>游客中心位置</description><styleUrl>#spot</styleUrl><Point><coordinates>119.709897,49.461676,0</coordinates></Point></Placemark><Placemark><name>恩和</name><description></description><styleUrl>#spot</styleUrl><Point><coordinates>119.916532,50.821739,0</coordinates></Point></Placemark><Placemark><name>额尔古纳市（途经）</name><description>没进湿地景区，路过县城</description><styleUrl>#spot</styleUrl><Point><coordinates>120.179946,50.241766,0</coordinates></Point></Placemark><Placemark><name>乌苏里浅滩 · 中国最北点</name><description>东经123°15′30″ 北纬53°33′42″</description><styleUrl>#spot</styleUrl><Point><coordinates>123.266278,53.563650,0</coordinates></Point></Placemark><Placemark><name>龙江第一湾</name><description></description><styleUrl>#spot</styleUrl><Point><coordinates>123.454923,53.482575,0</coordinates></Point></Placemark><Placemark><name>北极村</name><description></description><styleUrl>#spot</styleUrl><Point><coordinates>122.362222,53.482238,0</coordinates></Point></Placemark></Folder></Document></kml>